[{"OBJECT_NAME":"STARLINK-30131","OBJECT_ID":"2023-079L","EPOCH":"2026-03-09T22:00:01.999584","MEAN_MOTION":15.17301963,"ECCENTRICITY":0.00020252,"INCLINATION":43.0004,"RA_OF_ASC_NODE":79.5928,"ARG_OF_PERICENTER":274.1276,"MEAN_ANOMALY":22.6014,"EPHEMERIS_TYPE":0,"CLASSIFICATION_TYPE":"U","NORAD_CAT_ID":56833,"ELEMENT_SET_NO":999,"REV_AT_EPOCH":578,"BSTAR":0.061566052,"MEAN_MOTION_DOT":0.0135934,"MEAN_MOTION_DDOT":0},{"OBJECT_NAME":"YAOGAN-43 03A","OBJECT_ID":"2024-190A","EPOCH":"2026-03-09T13:01:38.517888","MEAN_MOTION":15.2296971,"ECCENTRICITY":0.00052894,"INCLINATION":34.99,"RA_OF_ASC_NODE":104.4598,"ARG_OF_PERICENTER":156.9763,"MEAN_ANOMALY":203.119,"EPHEMERIS_TYPE":0,"CLASSIFICATION_TYPE":"U","NORAD_CAT_ID":61617,"ELEMENT_SET_NO":999,"REV_AT_EPOCH":7666,"BSTAR":0.00039712006,"MEAN_MOTION_DOT":9.537e-5,"MEAN_MOTION_DDOT":0}]
